[{"OBJECT_NAME":"STARLINK-2227","OBJECT_ID":"2021-041Y","EPOCH":"2026-03-09T08:20:51.194400","MEAN_MOTION":15.30195716,"ECCENTRICITY":0.0001546,"INCLINATION":53.1623,"RA_OF_ASC_NODE":89.8181,"ARG_OF_PERICENTER":103.909,"MEAN_ANOMALY":256.2083,"EPHEMERIS_TYPE":0,"CLASSIFICATION_TYPE":"U","NORAD_CAT_ID":48575,"ELEMENT_SET_NO":999,"REV_AT_EPOCH":26577,"BSTAR":1.3453916e-5,"MEAN_MOTION_DOT":3.9e-7,"MEAN_MOTION_DDOT":0},{"OBJECT_NAME":"CZ-6A DEB","OBJECT_ID":"2024-140RA","EPOCH":"2026-03-09T01:51:18.259488","MEAN_MOTION":15.31763252,"ECCENTRICITY":0.00411794,"INCLINATION":89.1856,"RA_OF_ASC_NODE":296.0787,"ARG_OF_PERICENTER":96.6516,"MEAN_ANOMALY":263.9425,"EPHEMERIS_TYPE":0,"CLASSIFICATION_TYPE":"U","NORAD_CAT_ID":61156,"ELEMENT_SET_NO":999,"REV_AT_EPOCH":8391,"BSTAR":0.0079173326,"MEAN_MOTION_DOT":0.00256788,"MEAN_MOTION_DDOT":0}]
